ONEWEB-0414             
1 50491U 21132Y   25181.86226699  .00000122  00000+0  27728-3 0  9996
2 50491  87.9131  45.2432 0001632  89.4631 270.6688 13.18701436176615
ONEWEB-0417             
1 50492U 21132Z   25181.56688053  .00000040  00000+0  69695-4 0  9999
2 50492  87.9136  45.3320 0001698  78.3572 281.7751 13.18673164175261
ONEWEB-0418             
1 50493U 21132AA  25181.87998492  .00000078  00000+0  16592-3 0  9993
2 50493  87.9131  45.2567 0001578  74.2780 285.8526 13.18636050176643
ONEWEB-0419             
1 50494U 21132AB  25181.51858066 -.00000005  00000+0 -45590-4 0  9990
2 50494  87.9126  45.3327 0001895  72.1845 287.9494 13.18568115175231
ONEWEB-0420             
1 50495U 21132AC  25181.86389836  .00000072  00000+0  15032-3 0  9992
2 50495  87.9128  45.2727 0002115  90.4334 269.7041 13.18695149176571
ONEWEB-0421             
1 50496U 21132AD  25181.55389452 -.00000024  00000+0 -92891-4 0  9991
2 50496  87.9131  45.3270 0001579  91.8742 268.2571 13.18719668175272
ONEWEB-0424             
1 50497U 21132AE  25181.89313487  .00000096  00000+0  21004-3 0  9998
2 50497  87.9135  45.2526 0002057  72.3947 287.7410 13.18589495176624
ONEWEB-0426             
1 50498U 21132AF  25181.55065139 -.00000029  00000+0 -10701-3 0  9990
2 50498  87.9120  45.3176 0001066  88.2986 271.8268 13.18734065175246
